{
  "type": "FeatureCollection",
  "features": [
    {
      "type": "Feature",
      "properties": {
        "norad_id": 64903,
        "name": "CO3D 1",
        "group": "resource",
        "lat": 78.12926691943744,
        "lon": 37.46835755070141,
        "alt_km": 497.36800929244237,
        "timestamp": "2025-12-25T19:00:39.006286+00:00",
        "meta_object_name": "CO3D 1",
        "meta_object_id": "2025-156E",
        "meta_epoch": "2025-12-25T06:01:08.705280",
        "meta_mean_motion": 15.20193155,
        "meta_eccentricity": 8.772e-05,
        "meta_inclination": 97.434,
        "meta_ra_of_asc_node": 75.3372,
        "meta_arg_of_pericenter": 70.8743,
        "meta_mean_anomaly": 289.2587,
        "meta_ephemeris_type": 0,
        "meta_classification_type": "U",
        "meta_norad_cat_id": 64903,
        "meta_element_set_no": 999,
        "meta_rev_at_epoch": 2310,
        "meta_bstar": 0.00010066407,
        "meta_mean_motion_dot": 2.112e-05,
        "meta_mean_motion_ddot": 0,
        "tle_line1": "1 64903U 25156E   25359.25079520  .00002112  00000+0  10066-3 0  9996",
        "tle_line2": "2 64903  97.4340  75.3372 0000877  70.8743 289.2587 15.20193155 23108"
      },
      "geometry": {
        "type": "Point",
        "coordinates": [
          37.46835755070141,
          78.12926691943744
        ]
      }
    },
    {
      "type": "Feature",
      "properties": {
        "norad_id": 66514,
        "name": "SENTINEL-6B",
        "group": "resource",
        "lat": 17.590133422884957,
        "lon": -52.77921035356375,
        "alt_km": 1339.0910631044499,
        "timestamp": "2025-12-25T19:00:39.006296+00:00",
        "meta_object_name": "SENTINEL-6B",
        "meta_object_id": "2025-264A",
        "meta_epoch": "2025-12-24T15:56:27.687840",
        "meta_mean_motion": 12.80929573,
        "meta_eccentricity": 0.00078982,
        "meta_inclination": 66.0398,
        "meta_ra_of_asc_node": 137.6666,
        "meta_arg_of_pericenter": 269.9778,
        "meta_mean_anomaly": 90.0333,
        "meta_ephemeris_type": 0,
        "meta_classification_type": "U",
        "meta_norad_cat_id": 66514,
        "meta_element_set_no": 999,
        "meta_rev_at_epoch": 481,
        "meta_bstar": 6.3146286e-05,
        "meta_mean_motion_dot": -4.6e-07,
        "meta_mean_motion_ddot": 0,
        "tle_line1": "1 66514U 25264A   25358.66420935 -.00000046  00000+0  63146-4 0  9993",
        "tle_line2": "2 66514  66.0398 137.6666 0007898 269.9778  90.0333 12.80929573  4818"
      },
      "geometry": {
        "type": "Point",
        "coordinates": [
          -52.77921035356375,
          17.590133422884957
        ]
      }
    }
  ]
}